[
    {
        "CCSDS_OMM_VERS": "3.0",
        "COMMENT": "GENERATED VIA SPACE-TRACK.ORG API",
        "CREATION_DATE": "2025-03-02T06:36:17",
        "ORIGINATOR": "18 SPCS",
        "OBJECT_NAME": "GALILEO 13 (26A)",
        "OBJECT_ID": "2016-030B",
        "CENTER_NAME": "EARTH",
        "REF_FRAME": "TEME",
        "TIME_SYSTEM": "UTC",
        "MEAN_ELEMENT_THEORY": "SGP4",
        "EPOCH": "2025-03-01T20:29:07.853568",
        "MEAN_MOTION": "1.70473765",
        "ECCENTRICITY": "0.00011200",
        "INCLINATION": "55.2576",
        "RA_OF_ASC_NODE": "234.6814",
        "ARG_OF_PERICENTER": "166.5482",
        "MEAN_ANOMALY": "193.4156",
        "EPHEMERIS_TYPE": "0",
        "CLASSIFICATION_TYPE": "U",
        "NORAD_CAT_ID": "41550",
        "ELEMENT_SET_NO": "999",
        "REV_AT_EPOCH": "5459",
        "BSTAR": "0.00000000000000",
        "MEAN_MOTION_DOT": "0.00000049",
        "MEAN_MOTION_DDOT": "0.0000000000000",
        "SEMIMAJOR_AXIS": "29600.347",
        "PERIOD": "844.705",
        "APOAPSIS": "23225.527",
        "PERIAPSIS": "23218.897",
        "OBJECT_TYPE": "PAYLOAD",
        "RCS_SIZE": "LARGE",
        "COUNTRY_CODE": "ESA",
        "LAUNCH_DATE": "2016-05-24",
        "SITE": "FRGUI",
        "DECAY_DATE": null,
        "FILE": "4656622",
        "GP_ID": "282026446",
        "TLE_LINE0": "0 GALILEO 13 (26A)",
        "TLE_LINE1": "1 41550U 16030B   25060.85356312  .00000049  00000-0  00000+0 0  9993",
        "TLE_LINE2": "2 41550  55.2576 234.6814 0001120 166.5482 193.4156  1.70473765 54593"
    }
]